{
  "type": "FeatureCollection",
  "features": [
    {
      "type": "Feature",
      "properties": {
        "norad_id": 30066,
        "name": "FENGYUN 1C DEB",
        "group": "fengyun-1c-debris",
        "lat": 17.864528682525524,
        "lon": -28.51023555638688,
        "alt_km": 853.3599440270636,
        "timestamp": "2025-12-09T18:55:17.505447+00:00",
        "meta_object_name": "FENGYUN 1C DEB",
        "meta_object_id": "1999-025PT",
        "meta_epoch": "2025-12-09T11:07:20.993088",
        "meta_mean_motion": 14.1910578,
        "meta_eccentricity": 0.01166927,
        "meta_inclination": 98.634,
        "meta_ra_of_asc_node": 333.9801,
        "meta_arg_of_pericenter": 271.4419,
        "meta_mean_anomaly": 246.2546,
        "meta_ephemeris_type": 0,
        "meta_classification_type": "U",
        "meta_norad_cat_id": 30066,
        "meta_element_set_no": 999,
        "meta_rev_at_epoch": 97790,
        "meta_bstar": 0.0002984343,
        "meta_mean_motion_dot": 6.24e-06,
        "meta_mean_motion_ddot": 0,
        "tle_line1": "1 30066U 99025PT  25343.46343742  .00000624  00000+0  29843-3 0  9990",
        "tle_line2": "2 30066  98.6340 333.9801 0116692 271.4419 246.2546 14.19105780977904"
      },
      "geometry": {
        "type": "Point",
        "coordinates": [
          -28.51023555638688,
          17.864528682525524
        ]
      }
    },
    {
      "type": "Feature",
      "properties": {
        "norad_id": 30067,
        "name": "FENGYUN 1C DEB",
        "group": "fengyun-1c-debris",
        "lat": 38.80393486805649,
        "lon": -137.34420055682966,
        "alt_km": 637.5922931641289,
        "timestamp": "2025-12-09T18:55:17.505457+00:00",
        "meta_object_name": "FENGYUN 1C DEB",
        "meta_object_id": "1999-025PU",
        "meta_epoch": "2025-12-09T15:33:06.219360",
        "meta_mean_motion": 14.43671256,
        "meta_eccentricity": 0.01520584,
        "meta_inclination": 98.7653,
        "meta_ra_of_asc_node": 229.6382,
        "meta_arg_of_pericenter": 27.3119,
        "meta_mean_anomaly": 2.4386,
        "meta_ephemeris_type": 0,
        "meta_classification_type": "U",
        "meta_norad_cat_id": 30067,
        "meta_element_set_no": 999,
        "meta_rev_at_epoch": 99154,
        "meta_bstar": 0.00063854931,
        "meta_mean_motion_dot": 2.442e-05,
        "meta_mean_motion_ddot": 0,
        "tle_line1": "1 30067U 99025PU  25343.64798865  .00002442  00000+0  63855-3 0  9992",
        "tle_line2": "2 30067  98.7653 229.6382 0152058  27.3119   2.4386 14.43671256991542"
      },
      "geometry": {
        "type": "Point",
        "coordinates": [
          -137.34420055682966,
          38.80393486805649
        ]
      }
    },
    {
      "type": "Feature",
      "properties": {
        "norad_id": 30068,
        "name": "FENGYUN 1C DEB",
        "group": "fengyun-1c-debris",
        "lat": -70.38169517068876,
        "lon": 126.1153284758164,
        "alt_km": 892.6029444263886,
        "timestamp": "2025-12-09T18:55:17.505467+00:00",
        "meta_object_name": "FENGYUN 1C DEB",
        "meta_object_id": "1999-025PV",
        "meta_epoch": "2025-12-08T23:00:47.665728",
        "meta_mean_motion": 14.1204164,
        "meta_eccentricity": 0.0190202,
        "meta_inclination": 98.7362,
        "meta_ra_of_asc_node": 330.8623,
        "meta_arg_of_pericenter": 359.6047,
        "meta_mean_anomaly": 0.4946,
        "meta_ephemeris_type": 0,
        "meta_classification_type": "U",
        "meta_norad_cat_id": 30068,
        "meta_element_set_no": 999,
        "meta_rev_at_epoch": 97290,
        "meta_bstar": 0.00032788,
        "meta_mean_motion_dot": 6.69e-06,
        "meta_mean_motion_ddot": 0,
        "tle_line1": "1 30068U 99025PV  25342.95888502  .00000669  00000+0  32788-3 0  9994",
        "tle_line2": "2 30068  98.7362 330.8623 0190202 359.6047   0.4946 14.12041640972900"
      },
      "geometry": {
        "type": "Point",
        "coordinates": [
          126.1153284758164,
          -70.38169517068876
        ]
      }
    },
    {
      "type": "Feature",
      "properties": {
        "norad_id": 30069,
        "name": "FENGYUN 1C DEB",
        "group": "fengyun-1c-debris",
        "lat": 48.03555585722492,
        "lon": -44.195736986031214,
        "alt_km": 835.9899146757671,
        "timestamp": "2025-12-09T18:55:17.505477+00:00",
        "meta_object_name": "FENGYUN 1C DEB",
        "meta_object_id": "1999-025PW",
        "meta_epoch": "2025-12-09T12:23:09.070080",
        "meta_mean_motion": 14.05220338,
        "meta_eccentricity": 0.00499952,
        "meta_inclination": 98.8009,
        "meta_ra_of_asc_node": 325.46,
        "meta_arg_of_pericenter": 62.0278,
        "meta_mean_anomaly": 50.1208,
        "meta_ephemeris_type": 0,
        "meta_classification_type": "U",
        "meta_norad_cat_id": 30069,
        "meta_element_set_no": 999,
        "meta_rev_at_epoch": 96801,
        "meta_bstar": 0.00032075827,
        "meta_mean_motion_dot": 4.82e-06,
        "meta_mean_motion_ddot": 0,
        "tle_line1": "1 30069U 99025PW  25343.51607720  .00000482  00000+0  32076-3 0  9992",
        "tle_line2": "2 30069  98.8009 325.4600 0049995  62.0278  50.1208 14.05220338968013"
      },
      "geometry": {
        "type": "Point",
        "coordinates": [
          -44.195736986031214,
          48.03555585722492
        ]
      }
    },
    {
      "type": "Feature",
      "properties": {
        "norad_id": 30070,
        "name": "FENGYUN 1C DEB",
        "group": "fengyun-1c-debris",
        "lat": 30.366168755205504,
        "lon": -131.45515370879681,
        "alt_km": 1095.7788977005712,
        "timestamp": "2025-12-09T18:55:17.505487+00:00",
        "meta_object_name": "FENGYUN 1C DEB",
        "meta_object_id": "1999-025PX",
        "meta_epoch": "2025-12-09T03:00:43.303680",
        "meta_mean_motion": 14.09858835,
        "meta_eccentricity": 0.0328362,
        "meta_inclination": 98.2865,
        "meta_ra_of_asc_node": 43.0347,
        "meta_arg_of_pericenter": 329.3985,
        "meta_mean_anomaly": 57.2744,
        "meta_ephemeris_type": 0,
        "meta_classification_type": "U",
        "meta_norad_cat_id": 30070,
        "meta_element_set_no": 999,
        "meta_rev_at_epoch": 95828,
        "meta_bstar": 0.0017200208,
        "meta_mean_motion_dot": 4.958e-05,
        "meta_mean_motion_ddot": 0,
        "tle_line1": "1 30070U 99025PX  25343.12550120  .00004958  00000+0  17200-2 0  9995",
        "tle_line2": "2 30070  98.2865  43.0347 0328362 329.3985  57.2744 14.09858835958286"
      },
      "geometry": {
        "type": "Point",
        "coordinates": [
          -131.45515370879681,
          30.366168755205504
        ]
      }
    },
    {
      "type": "Feature",
      "properties": {
        "norad_id": 30071,
        "name": "FENGYUN 1C DEB",
        "group": "fengyun-1c-debris",
        "lat": -74.86382998856297,
        "lon": 117.24492534209064,
        "alt_km": 753.2682433389491,
        "timestamp": "2025-12-09T18:55:17.505498+00:00",
        "meta_object_name": "FENGYUN 1C DEB",
        "meta_object_id": "1999-025PY",
        "meta_epoch": "2025-12-09T12:45:42.806880",
        "meta_mean_motion": 14.52035532,
        "meta_eccentricity": 0.00396146,
        "meta_inclination": 98.6583,
        "meta_ra_of_asc_node": 82.6948,
        "meta_arg_of_pericenter": 119.5036,
        "meta_mean_anomaly": 262.0308,
        "meta_ephemeris_type": 0,
        "meta_classification_type": "U",
        "meta_norad_cat_id": 30071,
        "meta_element_set_no": 999,
        "meta_rev_at_epoch": 98180,
        "meta_bstar": 0.0037276118,
        "meta_mean_motion_dot": 0.00015207,
        "meta_mean_motion_ddot": 0,
        "tle_line1": "1 30071U 99025PY  25343.53174545  .00015207  00000+0  37276-2 0  9998",
        "tle_line2": "2 30071  98.6583  82.6948 0039614 119.5036 262.0308 14.52035532981804"
      },
      "geometry": {
        "type": "Point",
        "coordinates": [
          117.24492534209064,
          -74.86382998856297
        ]
      }
    },
    {
      "type": "Feature",
      "properties": {
        "norad_id": 30072,
        "name": "FENGYUN 1C DEB",
        "group": "fengyun-1c-debris",
        "lat": 37.27856673418868,
        "lon": 124.90147603854253,
        "alt_km": 782.541835795545,
        "timestamp": "2025-12-09T18:55:17.505508+00:00",
        "meta_object_name": "FENGYUN 1C DEB",
        "meta_object_id": "1999-025PZ",
        "meta_epoch": "2025-12-08T22:42:07.736832",
        "meta_mean_motion": 14.3766264,
        "meta_eccentricity": 0.0059365,
        "meta_inclination": 99.0774,
        "meta_ra_of_asc_node": 131.0024,
        "meta_arg_of_pericenter": 283.3052,
        "meta_mean_anomaly": 76.1518,
        "meta_ephemeris_type": 0,
        "meta_classification_type": "U",
        "meta_norad_cat_id": 30072,
        "meta_element_set_no": 999,
        "meta_rev_at_epoch": 97116,
        "meta_bstar": 0.0040209,
        "meta_mean_motion_dot": 0.000123,
        "meta_mean_motion_ddot": 0,
        "tle_line1": "1 30072U 99025PZ  25342.94592288  .00012300  00000+0  40209-2 0  9992",
        "tle_line2": "2 30072  99.0774 131.0024 0059365 283.3052  76.1518 14.37662640971163"
      },
      "geometry": {
        "type": "Point",
        "coordinates": [
          124.90147603854253,
          37.27856673418868
        ]
      }
    }
  ]
}